{
    "links": {
        "self": "http://www.neowsapp.com/rest/v1/neo/3705047?api_key=iIulBulltgU6a56xZRHN4H3l9WmuAYTsLGpBGhQ2"
    },
    "id": "3705047",
    "neo_reference_id": "3705047",
    "name": "(2015 BB311)",
    "designation": "2015 BB311",
    "nasa_jpl_url": "http://ssd.jpl.nasa.gov/sbdb.cgi?sstr=3705047",
    "absolute_magnitude_h": 23.4,
    "estimated_diameter": {
        "kilometers": {
            "estimated_diameter_min": 0.0555334912,
            "estimated_diameter_max": 0.1241766613
        },
        "meters": {
            "estimated_diameter_min": 55.5334911581,
            "estimated_diameter_max": 124.1766612574
        },
        "miles": {
            "estimated_diameter_min": 0.0345069009,
            "estimated_diameter_max": 0.0771597762
        },
        "feet": {
            "estimated_diameter_min": 182.1964991311,
            "estimated_diameter_max": 407.4037573197
        }
    },
    "is_potentially_hazardous_asteroid": false,
    "close_approach_data": [
        {
            "close_approach_date": "2015-01-15",
            "close_approach_date_full": "2015-Jan-15 14:03",
            "epoch_date_close_approach": 1421330580000,
            "relative_velocity": {
                "kilometers_per_second": "12.9486264717",
                "kilometers_per_hour": "46615.0552980678",
                "miles_per_hour": "28964.7825545133"
            },
            "miss_distance": {
                "astronomical": "0.1902261133",
                "lunar": "73.9979580737",
                "kilometers": "28457421.368058671",
                "miles": "17682621.6840488198"
            },
            "orbiting_body": "Earth"
        }
    ],
    "orbital_data": {
        "orbit_id": "5",
        "orbit_determination_date": "2017-04-06 08:36:08",
        "first_observation_date": "2015-01-19",
        "last_observation_date": "2015-02-09",
        "data_arc_in_days": 21,
        "observations_used": 25,
        "orbit_uncertainty": "8",
        "minimum_orbit_intersection": ".188081",
        "jupiter_tisserand_invariant": "4.477",
        "epoch_osculation": "2457042.5",
        "eccentricity": ".2052083044399549",
        "semi_major_axis": "1.473677278766153",
        "inclination": "24.71802601066276",
        "ascending_node_longitude": "115.0041466375876",
        "orbital_period": "653.4344212532443",
        "perihelion_distance": "1.171266463098864",
        "perihelion_argument": "355.7115223387698",
        "aphelion_distance": "1.776088094433442",
        "perihelion_time": "2457031.603478552468",
        "mean_anomaly": "6.003276830118542",
        "mean_motion": ".5509351639442924",
        "equinox": "J2000",
        "orbit_class": {
            "orbit_class_type": "AMO",
            "orbit_class_description": "Near-Earth asteroid orbits similar to that of 1221 Amor",
            "orbit_class_range": "1.017 AU < q (perihelion) < 1.3 AU"
        }
    },
    "is_sentry_object": false
}